[{"OBJECT_NAME":"GAOFEN-9 05","OBJECT_ID":"2020-058A","EPOCH":"2026-03-10T00:01:50.876256","MEAN_MOTION":15.30293976,"ECCENTRICITY":0.0010522,"INCLINATION":97.2228,"RA_OF_ASC_NODE":111.963,"ARG_OF_PERICENTER":91.0204,"MEAN_ANOMALY":269.2242,"EPHEMERIS_TYPE":0,"CLASSIFICATION_TYPE":"U","NORAD_CAT_ID":46232,"ELEMENT_SET_NO":999,"REV_AT_EPOCH":30843,"BSTAR":0.00025120304,"MEAN_MOTION_DOT":7.299e-5,"MEAN_MOTION_DDOT":0},{"OBJECT_NAME":"STARLINK-30996","OBJECT_ID":"2024-038A","EPOCH":"2026-03-09T06:29:14.747712","MEAN_MOTION":15.27572837,"ECCENTRICITY":4.989e-5,"INCLINATION":43.0041,"RA_OF_ASC_NODE":29.4218,"ARG_OF_PERICENTER":228.237,"MEAN_ANOMALY":131.8439,"EPHEMERIS_TYPE":0,"CLASSIFICATION_TYPE":"U","NORAD_CAT_ID":59023,"ELEMENT_SET_NO":999,"REV_AT_EPOCH":11606,"BSTAR":-3.3911215e-5,"MEAN_MOTION_DOT":-1.195e-5,"MEAN_MOTION_DDOT":0}]
